     3.00           N: GNSS NAV DATA    E: Galileo          RINEX VERSION / TYPE
PREC2NAV                                20121215 063315 UTC PGM / RUN BY / DATE 
SOURCE: data/tum%W%D.sp3                                    COMMENT             
                                                            END OF HEADER       
E11 2012 11 14  0  0  0  .410675597360E-03  .386048158974E-09  .000000000000E+00
      .100000000000E+01  .464266751240E+02  .371857644680E-08  .105685442156E+01
      .216498508196E-05  .139853716925E-03  .475669013948E-05  .544059041334E+04
      .259200000000E+06  .426218136048E-07  .119325981508E+01 -.108948181942E-06
      .956048420228E+00  .233010143116E+03  .155470935444E+01 -.578115691945E-08
      .635649939168E-09  .000000000000E+00  .171400000000E+04  .000000000000E+00
      .240000000000E+01  .000000000000E+00  .000000000000E+00  .000000000000E+00
      .262800000000E+06  .000000000000E+00
E12 2012 11 14  0  0  0  .502888357120E-03  .851255820513E-10  .000000000000E+00
      .100000000000E+01  .447282737171E+02  .378299628461E-08  .279797169565E+00
      .216365798801E-05  .685184974967E-04  .468945961292E-05  .544058744471E+04
      .259200000000E+06 -.332217650050E-07  .119323398818E+01  .234168464560E-09
      .956059417863E+00  .237110083200E+03 -.324749614432E+01 -.593482363771E-08
      .596257887975E-09  .000000000000E+00  .171400000000E+04  .000000000000E+00
      .240000000000E+01  .000000000000E+00  .000000000000E+00  .000000000000E+00
      .262800000000E+06  .000000000000E+00
E11 2012 11 14  2  0  0  .413454377040E-03  .385892441026E-09  .000000000000E+00
      .200000000000E+01  .476579744408E+02  .372745244640E-08  .194806915434E+01
      .227203885375E-05  .139763050055E-03  .484654783946E-05  .544059080595E+04
      .266400000000E+06  .313356830954E-07  .119321789205E+01  .284870248901E-07
      .956052188714E+00  .234664802895E+03 -.472705073375E+01 -.588352181741E-08
      .591043374404E-09  .000000000000E+00  .171400000000E+04  .000000000000E+00
      .240000000000E+01  .000000000000E+00  .000000000000E+00  .000000000000E+00
      .270000000000E+06  .000000000000E+00
E12 2012 11 14  2  0  0  .503501010920E-03  .850747179487E-10  .000000000000E+00
      .200000000000E+01  .521585472536E+02  .370594165829E-08  .116122067517E+01
      .248987954466E-05  .692709365011E-04  .468013516542E-05  .544058968600E+04
      .266400000000E+06 -.792477599028E-08  .119319188062E+01  .550372430991E-07
      .956063975898E+00  .238395479637E+03 -.323627875436E+01 -.586335536336E-08
      .570299072480E-09  .000000000000E+00  .171400000000E+04  .000000000000E+00
      .240000000000E+01  .000000000000E+00  .000000000000E+00  .000000000000E+00
      .270000000000E+06  .000000000000E+00
E11 2012 11 14  4  0  0  .416232953960E-03  .385950076923E-09  .000000000000E+00
      .300000000000E+01  .551486691426E+02  .368618975293E-08  .283579991578E+01
      .265285844304E-05  .138887094440E-03  .494975099701E-05  .544059312269E+04
      .273600000000E+06 -.257620373509E-07  .119317596346E+01  .609118377754E-07
      .956056494780E+00  .232931581810E+03 -.472214246356E+01 -.584376157312E-08
      .552158294255E-09  .000000000000E+00  .171400000000E+04  .000000000000E+00
      .240000000000E+01  .000000000000E+00  .000000000000E+00  .000000000000E+00
      .277200000000E+06  .000000000000E+00
E12 2012 11 14  4  0  0  .504113623920E-03  .850952717949E-10  .000000000000E+00
      .300000000000E+01  .532404579849E+02  .365900297465E-08  .201960703765E+01
      .254183638493E-05  .691675759661E-04  .549663369798E-05  .544059463325E+04
      .273600000000E+06 -.307404980269E-07  .119314995417E+01  .913261365785E-08
      .956067938755E+00  .222009842917E+03 -.320202637768E+01 -.585598425540E-08
      .531862989652E-09  .000000000000E+00  .171400000000E+04  .000000000000E+00
      .240000000000E+01  .000000000000E+00  .000000000000E+00  .000000000000E+00
      .277200000000E+06  .000000000000E+00
E11 2012 11 14  6  0  0  .419011837080E-03  .385928851282E-09  .000000000000E+00
      .400000000000E+01  .506646334862E+02  .364363238777E-08 -.255218085989E+01
      .241645790335E-05  .136466070120E-03  .577978069649E-05  .544059822224E+04
      .280800000000E+06 -.411906373173E-07  .119313405758E+01  .143385107751E-07
      .956060334186E+00  .216599368066E+03  .155847519486E+01 -.583723174053E-08
      .526173748686E-09  .000000000000E+00  .171400000000E+04  .000000000000E+00
      .240000000000E+01  .000000000000E+00  .000000000000E+00  .000000000000E+00
      .284400000000E+06  .000000000000E+00
E12 2012 11 14  6  0  0  .504726221000E-03  .850730333333E-10  .000000000000E+00
      .400000000000E+01  .476270839635E+02  .365827005880E-08  .290224545398E+01
      .213425348453E-05  .687402021045E-04  .561731562731E-05  .544059623397E+04
      .280800000000E+06 -.410350328288E-07  .119310769279E+01 -.346970326845E-07
      .956072016151E+00  .218701851837E+03 -.319202799467E+01 -.581834969305E-08
      .554015421486E-09  .000000000000E+00  .171400000000E+04  .000000000000E+00
      .240000000000E+01  .000000000000E+00  .000000000000E+00  .000000000000E+00
      .284400000000E+06  .000000000000E+00
E11 2012 11 14  8  0  0  .421790323480E-03  .385862797436E-09  .000000000000E+00
      .500000000000E+01  .474330932396E+02  .365182876206E-08 -.165906195119E+01
      .210463347717E-05  .136105818073E-03  .580586694341E-05  .544059873099E+04
      .288000000000E+06 -.227585516669E-07  .119309197288E+01 -.512418214769E-07
      .956064528515E+00  .213782206543E+03  .155799152645E+01 -.577341170598E-08
      .550900448613E-09  .000000000000E+00  .171400000000E+04  .000000000000E+00
      .240000000000E+01  .000000000000E+00  .000000000000E+00  .000000000000E+00
      .291600000000E+06  .000000000000E+00
E12 2012 11 14  8  0  0  .505338699880E-03  .850484333333E-10  .000000000000E+00
      .500000000000E+01  .431951845567E+02  .372120537751E-08 -.249411343871E+01
      .199011204839E-05  .705169219101E-04  .597908012062E-05  .544059245331E+04
      .288000000000E+06  .176459538126E-07  .119306609817E+01 -.279268982032E-07
      .956076340062E+00  .206695369707E+03  .309696860490E+01 -.575715253691E-08
      .552124361738E-09  .000000000000E+00  .171400000000E+04  .000000000000E+00
      .240000000000E+01  .000000000000E+00  .000000000000E+00  .000000000000E+00
      .291600000000E+06  .000000000000E+00
E11 2012 11 14 10  0  0  .424568649440E-03  .385915397436E-09  .000000000000E+00
      .600000000000E+01  .401537828924E+02  .375367735652E-08 -.778931953608E+00
      .191780965994E-05  .135549534449E-03  .608532984314E-05  .544059502345E+04
      .295200000000E+06  .133188164319E-07  .119305047635E+01 -.551402395831E-07
      .956068560184E+00  .203532852648E+03  .157049824812E+01 -.576171498853E-08
      .557151944388E-09  .000000000000E+00  .171400000000E+04  .000000000000E+00
      .240000000000E+01  .000000000000E+00  .000000000000E+00  .000000000000E+00
      .298800000000E+06  .000000000000E+00
E12 2012 11 14 10  0  0  .505951118880E-03  .850585564103E-10  .000000000000E+00
      .600000000000E+01  .410350040999E+02  .377203774773E-08 -.160279332789E+01
      .199494367770E-05  .707382994449E-04  .608310286609E-05  .544059206225E+04
      .295200000000E+06  .732935134797E-07  .119302415622E+01 -.768136776395E-09
      .956080332976E+00  .205382343045E+03  .309828817288E+01 -.578508609482E-08
      .606624965938E-09  .000000000000E+00  .171400000000E+04  .000000000000E+00
      .240000000000E+01  .000000000000E+00  .000000000000E+00  .000000000000E+00
      .298800000000E+06  .000000000000E+00
E11 2012 11 14 12  0  0  .427347032160E-03  .385867671795E-09  .000000000000E+00
      .700000000000E+01  .402467833222E+02  .380632857997E-08  .113685760888E+00
      .201726836123E-05  .135770394166E-03  .627907288951E-05  .544059544958E+04
      .302400000000E+06  .901488966973E-07  .119300816715E+01  .183624362372E-07
      .956072734327E+00  .201674676455E+03  .157051905609E+01 -.579518065439E-08
      .653449721094E-09  .000000000000E+00  .171400000000E+04  .000000000000E+00
      .240000000000E+01  .000000000000E+00  .000000000000E+00  .000000000000E+00
      .306000000000E+06  .000000000000E+00
E12 2012 11 14 12  0  0  .506563347080E-03  .850136769231E-10  .000000000000E+00
      .700000000000E+01  .462892520736E+02  .379880265089E-08 -.718574911056E+00
      .217791161478E-05  .702911056274E-04  .605484400085E-05  .544059055974E+04
      .302400000000E+06  .160165387051E-07  .119298214393E+01  .416883961646E-07
      .956085052078E+00  .207416354929E+03  .310670976411E+01 -.576021160494E-08
      .668357649481E-09  .000000000000E+00  .171400000000E+04  .000000000000E+00
      .240000000000E+01  .000000000000E+00  .000000000000E+00  .000000000000E+00
      .306000000000E+06  .000000000000E+00
E11 2012 11 14 14  0  0  .430125471960E-03  .385912969231E-09  .000000000000E+00
      .800000000000E+01  .477030875099E+02  .383547738491E-08  .101127270770E+01
      .227354810284E-05  .134948513638E-03  .626936962130E-05  .544059326573E+04
      .309600000000E+06  .124342233782E-07  .119296609761E+01  .308607762976E-07
      .956077912501E+00  .203242944225E+03  .156557097947E+01 -.575230520516E-08
      .720310465195E-09  .000000000000E+00  .171400000000E+04  .000000000000E+00
      .240000000000E+01  .000000000000E+00  .000000000000E+00  .000000000000E+00
      .313200000000E+06  .000000000000E+00
